NORAD_CAT_ID,OBJECT_NAME,OBJECT_TYPE,EPOCH,MEAN_MOTION,ECCENTRICITY,INCLINATION,RA_OF_ASC_NODE,ARG_OF_PERICENTER,MEAN_ANOMALY,BSTAR,MEAN_MOTION_DOT,MEAN_MOTION_DDOT,TLE_LINE0,TLE_LINE1,TLE_LINE2,SEMIMAJOR_AXIS,PERIOD,APOGEE,PERIGEE,DECAYED
52263.0,STARLINK-3786,PAYLOAD,2023-07-25 02:08:34,15.08847462,0.0001139,53.2168,92.4432,86.7208,273.3914,0.00010291,1.351e-05,0.0,0 STARLINK-3786,1 52263U 22041C   23206.08928336  .00001351  00000-0  10291-3 0  9995,2 52263  53.2168  92.4432 0001139  86.7208 273.3914 15.08847462 69643,6917.858,95.437,540.511,538.935,0.0
52263.0,STARLINK-3786,PAYLOAD,2023-07-26 01:59:21,15.08842316,0.0001458,53.2161,87.9848,75.2604,284.8549,7.9115e-05,9.71e-06,0.0,0 STARLINK-3786,1 52263U 22041C   23207.08288998  .00000971  00000-0  79115-4 0  9997,2 52263  53.2161  87.9848 0001458  75.2604 284.8549 15.08842316 69793,6917.873,95.437,540.747,538.73,0.0
52263.0,STARLINK-3786,PAYLOAD,2023-07-27 01:50:07,15.08852903,0.0001215,53.2177,83.5218,89.4681,270.645,2.8817e-05,1.71e-06,0.0,0 STARLINK-3786,1 52263U 22041C   23208.07648133  .00000171  00000-0  28817-4 0  9993,2 52263  53.2177  83.5218 0001215  89.4681 270.6450 15.08852903 71156,6917.841,95.437,540.546,538.865,0.0
52263.0,STARLINK-3786,PAYLOAD,2023-07-27 08:11:42,15.0882957,0.0001827,53.2182,82.3347,84.5185,275.6015,-0.00011783,-2.162e-05,0.0,0 STARLINK-3786,1 52263U 22041C   23208.34146361 -.00002162  00000-0 -11783-3 0  9996,2 52263  53.2182  82.3347 0001827  84.5185 275.6015 15.08829570 71196,6917.912,95.438,541.041,538.513,0.0
52263.0,STARLINK-3786,PAYLOAD,2023-07-27 22:30:10,15.08828105,0.0001135,53.2177,79.657,97.6092,262.5029,-9.1461e-05,-1.743e-05,0.0,0 STARLINK-3786,1 52263U 22041C   23208.93762419 -.00001743  00000-0 -91461-4 0  9995,2 52263  53.2177  79.6570 0001135  97.6092 262.5029 15.08828105 70070,6917.917,95.438,540.567,538.997,0.0
52263.0,STARLINK-3786,PAYLOAD,2023-07-28 01:40:56,15.08830335,0.000114,53.2179,79.0624,96.7356,263.3766,-7.9961e-05,-1.56e-05,0.0,0 STARLINK-3786,1 52263U 22041C   23209.07010327 -.00001560  00000-0 -79961-4 0  9993,2 52263  53.2179  79.0624 0001140  96.7356 263.3766 15.08830335 70092,6917.91,95.438,540.564,538.986,0.0
52263.0,STARLINK-3786,PAYLOAD,2023-07-28 17:34:47,15.08854977,9.82e-05,53.2174,76.0895,109.3881,250.7218,-0.00018023,-3.156e-05,0.0,0 STARLINK-3786,1 52263U 22041C   23209.73249598 -.00003156  00000-0 -18023-3 0  9994,2 52263  53.2174  76.0895 0000982 109.3881 250.7218 15.08854977 71407,6917.835,95.437,540.379,539.02,0.0
52263.0,STARLINK-3786,PAYLOAD,2023-07-29 19:00:58,15.08833126,0.0001128,53.2185,71.3333,100.2902,259.8218,0.00017603,2.514e-05,0.0,0 STARLINK-3786,1 52263U 22041C   23210.79234015  .00002514  00000-0  17603-3 0  9998,2 52263  53.2185  71.3333 0001128 100.2902 259.8218 15.08833126 71561,6917.901,95.438,540.547,538.986,0.0
52263.0,STARLINK-3786,PAYLOAD,2023-07-29 23:47:06,15.08846355,0.0001036,53.2178,70.4404,106.8822,253.2283,0.00021416,3.123e-05,0.0,0 STARLINK-3786,1 52263U 22041C   23210.99105215  .00003123  00000-0  21416-3 0  9993,2 52263  53.2178  70.4404 0001036 106.8822 253.2283 15.08846355 71594,6917.861,95.437,540.443,539.009,0.0
52263.0,STARLINK-3786,PAYLOAD,2023-07-30 18:51:45,15.08841775,0.0001019,53.2174,66.8714,103.6738,256.4368,2.548e-05,1.18e-06,0.0,0 STARLINK-3786,1 52263U 22041C   23211.78593929  .00000118  00000-0  25480-4 0  9991,2 52263  53.2174  66.8714 0001019 103.6738 256.4368 15.08841775 71719,6917.875,95.437,540.445,539.035,0.0
52263.0,STARLINK-3786,PAYLOAD,2023-07-31 20:17:55,15.08842807,8.85e-05,53.2167,62.1121,86.7812,273.3281,-1.9694e-05,-6.01e-06,0.0,0 STARLINK-3786,1 52263U 22041C   23212.84577947 -.00000601  00000-0 -19694-4 0  9990,2 52263  53.2167  62.1121 0000885  86.7812 273.3281 15.08842807 71872,6917.872,95.437,540.349,539.125,0.0
52263.0,STARLINK-3786,PAYLOAD,2023-08-02 18:24:06,15.08842371,9.61e-05,53.2165,53.4885,74.0616,286.0482,0.00012571,1.714e-05,0.0,0 STARLINK-3786,1 52263U 22041C   23214.76673692  .00001714  00000-0  12571-3 0  9997,2 52263  53.2165  53.4885 0000961  74.0616 286.0482 15.08842371 72160,6917.873,95.437,540.403,539.073,0.0
52263.0,STARLINK-3786,PAYLOAD,2023-08-02 23:10:15,15.08849554,9.98e-05,53.2174,52.5968,80.5515,279.559,0.00017204,2.452e-05,0.0,0 STARLINK-3786,1 52263U 22041C   23214.96545139  .00002452  00000-0  17204-3 0  9991,2 52263  53.2174  52.5968 0000998  80.5515 279.5590 15.08849554 72192,6917.851,95.437,540.407,539.026,0.0
52263.0,STARLINK-3786,PAYLOAD,2023-08-03 18:14:53,15.08837144,9.7e-05,53.2179,49.0284,99.711,260.3991,2.8653e-05,1.68e-06,0.0,0 STARLINK-3786,1 52263U 22041C   23215.76034432  .00000168  00000-0  28653-4 0  9992,2 52263  53.2179  49.0284 0000970  99.7110 260.3991 15.08837144 72311,6917.889,95.438,540.425,539.083,0.0
52263.0,STARLINK-3786,PAYLOAD,2023-08-04 21:16:26,15.08846341,8.95e-05,53.2182,43.9715,91.3205,268.7889,6.7456e-05,7.86e-06,0.0,0 STARLINK-3786,1 52263U 22041C   23216.88641933  .00000786  00000-0  67456-4 0  9996,2 52263  53.2182  43.9715 0000895  91.3205 268.7889 15.08846341 72481,6917.861,95.437,540.345,539.107,0.0
52263.0,STARLINK-3786,PAYLOAD,2023-08-05 17:56:27,15.08841972,0.000101,53.2175,40.1031,110.0235,250.0866,8.9775e-05,1.141e-05,0.0,0 STARLINK-3786,1 52263U 22041C   23217.74754125  .00001141  00000-0  89775-4 0  9994,2 52263  53.2175  40.1031 0001010 110.0235 250.0866 15.08841972 72614,6917.874,95.437,540.438,539.041,0.0
52263.0,STARLINK-3786,PAYLOAD,2023-08-06 05:04:09,15.08833333,0.0001059,53.2187,38.0214,78.9589,281.1522,-4.0513e-05,-9.32e-06,0.0,0 STARLINK-3786,1 52263U 22041C   23218.21122680 -.00000932  00000-0 -40513-4 0  9998,2 52263  53.2187  38.0214 0001059  78.9589 281.1522 15.08833333 72686,6917.901,95.438,540.498,539.033,0.0
52263.0,STARLINK-3786,PAYLOAD,2023-08-06 17:47:16,15.08826737,0.0001049,53.2193,35.6437,83.5566,276.5545,-7.0807e-05,-1.414e-05,0.0,0 STARLINK-3786,1 52263U 22041C   23218.74116195 -.00001414  00000-0 -70807-4 0  9995,2 52263  53.2193  35.6437 0001049  83.5566 276.5545 15.08826737 72761,6917.921,95.438,540.512,539.06,0.0
52263.0,STARLINK-3786,PAYLOAD,2023-08-07 11:16:30,15.08843308,9.15e-05,53.219,32.3749,89.4001,270.7096,1.5717e-05,-3.8e-07,0.0,0 STARLINK-3786,1 52263U 22041C   23219.46979336 -.00000038  00000-0  15717-4 0  9998,2 52263  53.2190  32.3749 0000915  89.4001 270.7096 15.08843308 72870,6917.87,95.437,540.368,539.102,0.0
52263.0,STARLINK-3786,PAYLOAD,2023-08-07 17:38:01,15.08853326,8.28e-05,53.2188,31.1877,85.433,274.6757,0.00011348,1.519e-05,0.0,0 STARLINK-3786,1 52263U 22041C   23219.73474347  .00001519  00000-0  11348-3 0  9999,2 52263  53.2188  31.1877 0000828  85.4330 274.6757 15.08853326 72913,6917.84,95.437,540.277,539.132,0.0
52263.0,STARLINK-3786,PAYLOAD,2023-08-08 17:28:49,15.08844906,7.85e-05,53.2184,26.7264,84.9723,275.1359,0.00028358,4.229e-05,0.0,0 STARLINK-3786,1 52263U 22041C   23220.72834576  .00004229  00000-0  28358-3 0  9994,2 52263  53.2184  26.7264 0000785  84.9723 275.1359 15.08844906 73066,6917.865,95.437,540.273,539.187,0.0
52263.0,STARLINK-3786,PAYLOAD,2023-08-09 04:36:31,15.08839191,6.87e-05,53.2179,24.6442,98.474,261.633,0.00010552,1.392e-05,0.0,0 STARLINK-3786,1 52263U 22041C   23221.19203092  .00001392  00000-0  10552-3 0  9994,2 52263  53.2179  24.6442 0000687  98.4740 261.6330 15.08839191 73132,6917.883,95.438,540.223,539.273,0.0
52263.0,STARLINK-3786,PAYLOAD,2023-08-10 10:48:50,15.08843921,8.34e-05,53.2187,18.9943,76.3656,283.7429,-2.425e-05,-6.74e-06,0.0,0 STARLINK-3786,1 52263U 22041C   23222.45058813 -.00000674  00000-0 -24250-4 0  9998,2 52263  53.2187  18.9943 0000834  76.3656 283.7429 15.08843921 73329,6917.868,95.437,540.31,539.156,0.0
52263.0,STARLINK-3786,PAYLOAD,2023-08-10 18:45:45,15.08856908,6.51e-05,53.2185,17.5077,73.81,286.2964,-6.2716e-05,-1.286e-05,0.0,0 STARLINK-3786,1 52263U 22041C   23222.78178061 -.00001286  00000-0 -62716-4 0  9991,2 52263  53.2185  17.5077 0000651  73.8100 286.2964 15.08856908 73379,6917.829,95.436,540.144,539.243,0.0
52263.0,STARLINK-3786,PAYLOAD,2023-08-11 10:39:38,15.08832214,6.22e-05,53.2183,14.5321,67.9821,292.1237,7.6609e-05,9.32e-06,0.0,0 STARLINK-3786,1 52263U 22041C   23223.44419216  .00000932  00000-0  76609-4 0  9996,2 52263  53.2183  14.5321 0000622  67.9821 292.1237 15.08832214 73472,6917.904,95.438,540.199,539.339,0.0
52263.0,STARLINK-3786,PAYLOAD,2023-08-11 17:01:10,15.08842448,7.34e-05,53.2179,13.3451,64.6488,295.458,0.00010157,1.329e-05,0.0,0 STARLINK-3786,1 52263U 22041C   23223.70914639  .00001329  00000-0  10157-3 0  9990,2 52263  53.2179  13.3451 0000734  64.6488 295.4580 15.08842448 73517,6917.873,95.437,540.246,539.23,0.0
52263.0,STARLINK-3786,PAYLOAD,2023-08-12 10:30:25,15.08839129,7.74e-05,53.2178,10.0742,68.4981,291.6094,2.9108e-05,1.76e-06,0.0,0 STARLINK-3786,1 52263U 22041C   23224.43779214  .00000176  00000-0  29108-4 0  9995,2 52263  53.2178  10.0742 0000774  68.4981 291.6094 15.08839129 73629,6917.883,95.438,540.283,539.213,0.0
52263.0,STARLINK-3786,PAYLOAD,2023-08-12 16:51:57,15.08848604,8.57e-05,53.2178,8.885,71.2928,288.8157,3.2529e-05,2.3e-06,0.0,0 STARLINK-3786,1 52263U 22041C   23224.70274583  .00000230  00000-0  32529-4 0  9996,2 52263  53.2178   8.8850 0000857  71.2928 288.8157 15.08848604 73669,6917.854,95.437,540.312,539.126,0.0
52263.0,STARLINK-3786,PAYLOAD,2023-08-13 02:24:16,15.08835822,9.79e-05,53.2176,7.1003,69.6543,290.4554,-5.934e-05,-1.232e-05,0.0,0 STARLINK-3786,1 52263U 22041C   23225.10019656 -.00001232  00000-0 -59340-4 0  9994,2 52263  53.2176   7.1003 0000979  69.6543 290.4554 15.08835822 73723,6917.893,95.438,540.435,539.081,0.0
52263.0,STARLINK-3786,PAYLOAD,2023-08-14 08:36:36,15.08838475,0.0001184,53.2196,1.4513,76.309,283.8034,2.1071e-05,4.8e-07,0.0,0 STARLINK-3786,1 52263U 22041C   23226.35875760  .00000048  00000-0  21071-4 0  9990,2 52263  53.2196   1.4513 0001184  76.3090 283.8034 15.08838475 73916,6917.885,95.438,540.569,538.931,0.0
